[{"OBJECT_NAME":"OBJECT Y","OBJECT_ID":"2023-085Y","EPOCH":"2026-03-09T22:38:54.992256","MEAN_MOTION":15.32500153,"ECCENTRICITY":0.00063298,"INCLINATION":97.4849,"RA_OF_ASC_NODE":180.8653,"ARG_OF_PERICENTER":67.4431,"MEAN_ANOMALY":292.748,"EPHEMERIS_TYPE":0,"CLASSIFICATION_TYPE":"U","NORAD_CAT_ID":57026,"ELEMENT_SET_NO":999,"REV_AT_EPOCH":15160,"BSTAR":0.00065512761,"MEAN_MOTION_DOT":0.00020524,"MEAN_MOTION_DDOT":0},{"OBJECT_NAME":"STARLINK-35137","OBJECT_ID":"2025-212L","EPOCH":"2026-03-09T21:21:40.413312","MEAN_MOTION":15.31056965,"ECCENTRICITY":0.00012405,"INCLINATION":53.1586,"RA_OF_ASC_NODE":334.7958,"ARG_OF_PERICENTER":87.8041,"MEAN_ANOMALY":272.3102,"EPHEMERIS_TYPE":0,"CLASSIFICATION_TYPE":"U","NORAD_CAT_ID":65686,"ELEMENT_SET_NO":999,"REV_AT_EPOCH":2736,"BSTAR":0.0009406323,"MEAN_MOTION_DOT":0.00028356,"MEAN_MOTION_DDOT":0}]
